start=new Date('2023-07-01T00:00:00.000Z').valueOf();
sats=[{"MEAN_MOTION_DDOT":"0.0000000000000","INCLINATION":"53.0549","MEAN_MOTION":"15.06400752","OBJECT_TYPE":"PAYLOAD","PERIOD":"95.592","SITE":"AFETR","FILE":"3946298","MEAN_ANOMALY":"273.7202","PERIAPSIS":"546.328","ECCENTRICITY":"0.00012750","EPHEMERIS_TYPE":"0","CENTER_NAME":"EARTH","TIME_SYSTEM":"UTC","TLE_LINE1":"1 47916U 21021BJ  23181.48665116  .00002415  00000-0  18098-3 0  9996","ARG_OF_PERICENTER":"86.3933","TLE_LINE2":"2 47916  53.0549 355.3877 0001275  86.3933 273.7202 15.06400752127665","EPOCH":"2023-06-30T11:40:46.660224","NORAD_CAT_ID":"47916","MEAN_MOTION_DOT":"0.00002415","GP_ID":"234639318","DECAY_DATE":null,"SEMIMAJOR_AXIS":"6925.346","LAUNCH_DATE":"2021-03-14","OBJECT_NAME":"STARLINK-2378","MEAN_ELEMENT_THEORY":"SGP4","ELEMENT_SET_NO":"999","APOAPSIS":"548.094","REF_FRAME":"TEME","CLASSIFICATION_TYPE":"U","RA_OF_ASC_NODE":"355.3877","OBJECT_ID":"2021-021BJ","BSTAR":"0.00018098000000","COUNTRY_CODE":"US","RCS_SIZE":"LARGE","REV_AT_EPOCH":"12766"},{"OBJECT_ID":"2021-021BK","BSTAR":"0.00021969000000","COUNTRY_CODE":"US","REV_AT_EPOCH":"12753","RCS_SIZE":"LARGE","CLASSIFICATION_TYPE":"U","RA_OF_ASC_NODE":"5.0643","MEAN_ELEMENT_THEORY":"SGP4","ELEMENT_SET_NO":"999","APOAPSIS":"548.201","REF_FRAME":"TEME","GP_ID":"234633449","DECAY_DATE":null,"SEMIMAJOR_AXIS":"6925.328","LAUNCH_DATE":"2021-03-14","OBJECT_NAME":"STARLINK-2397","ECCENTRICITY":"0.00014560","EPHEMERIS_TYPE":"0","CENTER_NAME":"EARTH","TIME_SYSTEM":"UTC","TLE_LINE1":"1 47917U 21021BK  23181.55944246  .00002993  00000-0  21969-3 0  9991","ARG_OF_PERICENTER":"94.7172","TLE_LINE2":"2 47917  53.0544   5.0643 0001456  94.7172 265.3983 15.06406814127534","EPOCH":"2023-06-30T13:25:35.828544","NORAD_CAT_ID":"47917","MEAN_MOTION_DOT":"0.00002993","SITE":"AFETR","FILE":"3946085","MEAN_ANOMALY":"265.3983","PERIAPSIS":"546.184","MEAN_MOTION_DDOT":"0.0000000000000","INCLINATION":"53.0544","MEAN_MOTION":"15.06406814","OBJECT_TYPE":"PAYLOAD","PERIOD":"95.592"},{"REF_FRAME":"TEME","APOAPSIS":"547.988","ELEMENT_SET_NO":"999","MEAN_ELEMENT_THEORY":"SGP4","OBJECT_NAME":"STARLINK-2398","LAUNCH_DATE":"2021-03-14","GP_ID":"234626812","DECAY_DATE":null,"SEMIMAJOR_AXIS":"6925.310","REV_AT_EPOCH":"12741","RCS_SIZE":"LARGE","COUNTRY_CODE":"US","BSTAR":"0.00093613000000","OBJECT_ID":"2021-021BL","RA_OF_ASC_NODE":"8.6053","CLASSIFICATION_TYPE":"U","PERIOD":"95.591","OBJECT_TYPE":"PAYLOAD","INCLINATION":"53.0562","MEAN_MOTION":"15.06412596","MEAN_MOTION_DDOT":"0.0000000000000","MEAN_MOTION_DOT":"0.00013694","NORAD_CAT_ID":"47918","EPOCH":"2023-06-29T18:29:44.713824","TLE_LINE2":"2 47918  53.0562   8.6053 0001174 103.3613 256.7507 15.06412596127410","ARG_OF_PERICENTER":"103.3613","TLE_LINE1":"1 47918U 21021BL  23180.77065641  .00013694  00000-0  93613-3 0  9993","TIME_SYSTEM":"UTC","CENTER_NAME":"EARTH","ECCENTRICITY":"0.00011740","EPHEMERIS_TYPE":"0","PERIAPSIS":"546.362","MEAN_ANOMALY":"256.7507","FILE":"3945830","SITE":"AFETR"},{"ECCENTRICITY":"0.00010760","EPHEMERIS_TYPE":"0","TIME_SYSTEM":"UTC","CENTER_NAME":"EARTH","TLE_LINE1":"1 47919U 21021BM  23181.55115510  .00003722  00000-0  26857-3 0  9999","ARG_OF_PERICENTER":"87.3579","TLE_LINE2":"2 47919  53.0551  15.0997 0001076  87.3579 272.7533 15.06406322127373","EPOCH":"2023-06-30T13:13:39.800640","NORAD_CAT_ID":"47919","MEAN_MOTION_DOT":"0.00003722","SITE":"AFETR","FILE":"3946103","MEAN_ANOMALY":"272.7533","PERIAPSIS":"546.449","MEAN_MOTION_DDOT":"0.0000000000000","MEAN_MOTION":"15.06406322","INCLINATION":"53.0551","OBJECT_TYPE":"PAYLOAD","PERIOD":"95.592","OBJECT_ID":"2021-021BM","BSTAR":"0.00026857000000","COUNTRY_CODE":"US","REV_AT_EPOCH":"12737","RCS_SIZE":"LARGE","CLASSIFICATION_TYPE":"U","RA_OF_ASC_NODE":"15.0997","MEAN_ELEMENT_THEORY":"SGP4","ELEMENT_SET_NO":"999","APOAPSIS":"547.939","REF_FRAME":"TEME","GP_ID":"234633466","DECAY_DATE":null,"SEMIMAJOR_AXIS":"6925.329","LAUNCH_DATE":"2021-03-14","OBJECT_NAME":"STARLINK-2405"},{"FILE":"3946224","SITE":"AFETR","MEAN_ANOMALY":"278.9920","PERIAPSIS":"546.377","TLE_LINE1":"1 47977U 21024A   23181.36086510 -.00002369  00000-0 -14023-3 0  9992","ARG_OF_PERICENTER":"81.1208","EPHEMERIS_TYPE":"0","ECCENTRICITY":"0.00012230","TIME_SYSTEM":"UTC","CENTER_NAME":"EARTH","NORAD_CAT_ID":"47977","MEAN_MOTION_DOT":"-0.00002369","TLE_LINE2":"2 47977  53.0548  60.9493 0001223  81.1208 278.9920 15.06396598125973","EPOCH":"2023-06-30T08:39:38.744640","OBJECT_TYPE":"PAYLOAD","MEAN_MOTION_DDOT":"0.0000000000000","INCLINATION":"53.0548","MEAN_MOTION":"15.06396598","PERIOD":"95.592","CLASSIFICATION_TYPE":"U","RA_OF_ASC_NODE":"60.9493","COUNTRY_CODE":"US","OBJECT_ID":"2021-024A","BSTAR":"-0.00014023000000","RCS_SIZE":"LARGE","REV_AT_EPOCH":"12597","DECAY_DATE":null,"GP_ID":"234637144","SEMIMAJOR_AXIS":"6925.359","OBJECT_NAME":"STARLINK-2087","LAUNCH_DATE":"2021-03-24","MEAN_ELEMENT_THEORY":"SGP4","APOAPSIS":"548.071","REF_FRAME":"TEME","ELEMENT_SET_NO":"999"},{"LAUNCH_DATE":"2021-03-24","OBJECT_NAME":"STARLINK-1647","SEMIMAJOR_AXIS":"6925.314","GP_ID":"234636887","DECAY_DATE":null,"ELEMENT_SET_NO":"999","REF_FRAME":"TEME","APOAPSIS":"547.847","MEAN_ELEMENT_THEORY":"SGP4","RA_OF_ASC_NODE":"69.6667","CLASSIFICATION_TYPE":"U","RCS_SIZE":"LARGE","REV_AT_EPOCH":"12586","BSTAR":"0.00030558000000","OBJECT_ID":"2021-024B","COUNTRY_CODE":"US","PERIOD":"95.591","MEAN_MOTION":"15.06411431","INCLINATION":"53.0548","MEAN_MOTION_DDOT":"0.0000000000000","OBJECT_TYPE":"PAYLOAD","PERIAPSIS":"546.510","MEAN_ANOMALY":"274.1772","SITE":"AFETR","FILE":"3946216","EPOCH":"2023-06-30T15:32:19.060512","TLE_LINE2":"2 47978  53.0548  69.6667 0000965  85.9327 274.1772 15.06411431125864","MEAN_MOTION_DOT":"0.00004275","NORAD_CAT_ID":"47978","TIME_SYSTEM":"UTC","CENTER_NAME":"EARTH","EPHEMERIS_TYPE":"0","ECCENTRICITY":"0.00009650","ARG_OF_PERICENTER":"85.9327","TLE_LINE1":"1 47978U 21024B   23181.64744283  .00004275  00000-0  30558-3 0  9999"},{"OBJECT_TYPE":"PAYLOAD","INCLINATION":"53.0549","MEAN_MOTION":"15.06397972","MEAN_MOTION_DDOT":"0.0000000000000","PERIOD":"95.592","FILE":"3946217","SITE":"AFETR","PERIAPSIS":"546.367","MEAN_ANOMALY":"273.3783","ARG_OF_PERICENTER":"86.7347","TLE_LINE1":"1 47979U 21024C   23181.65159920  .00004388  00000-0  31330-3 0  9993","TIME_SYSTEM":"UTC","CENTER_NAME":"EARTH","ECCENTRICITY":"0.00012310","EPHEMERIS_TYPE":"0","MEAN_MOTION_DOT":"0.00004388","NORAD_CAT_ID":"47979","EPOCH":"2023-06-30T15:38:18.170880","TLE_LINE2":"2 47979  53.0549   4.6560 0001231  86.7347 273.3783 15.06397972126783","SEMIMAJOR_AXIS":"6925.355","GP_ID":"234636894","DECAY_DATE":null,"OBJECT_NAME":"STARLINK-2325","LAUNCH_DATE":"2021-03-24","MEAN_ELEMENT_THEORY":"SGP4","REF_FRAME":"TEME","APOAPSIS":"548.072","ELEMENT_SET_NO":"999","CLASSIFICATION_TYPE":"U","RA_OF_ASC_NODE":"4.6560","COUNTRY_CODE":"US","BSTAR":"0.00031330000000","OBJECT_ID":"2021-024C","REV_AT_EPOCH":"12678","RCS_SIZE":"LARGE"},{"DECAY_DATE":null,"GP_ID":"234637167","SEMIMAJOR_AXIS":"6925.361","OBJECT_NAME":"STARLINK-2312","LAUNCH_DATE":"2021-03-24","MEAN_ELEMENT_THEORY":"SGP4","APOAPSIS":"548.035","REF_FRAME":"TEME","ELEMENT_SET_NO":"999","CLASSIFICATION_TYPE":"U","RA_OF_ASC_NODE":"344.6814","COUNTRY_CODE":"US","OBJECT_ID":"2021-024D","BSTAR":"0.00016940000000","RCS_SIZE":"LARGE","REV_AT_EPOCH":"12705","OBJECT_TYPE":"PAYLOAD","MEAN_MOTION_DDOT":"0.0000000000000","INCLINATION":"53.0551","MEAN_MOTION":"15.06396022","PERIOD":"95.592","FILE":"3946217","SITE":"AFETR","MEAN_ANOMALY":"271.1956","PERIAPSIS":"546.417","TLE_LINE1":"1 47980U 21024D   23181.67188807  .00002242  00000-0  16940-3 0  9990","ARG_OF_PERICENTER":"88.9167","ECCENTRICITY":"0.00011680","EPHEMERIS_TYPE":"0","TIME_SYSTEM":"UTC","CENTER_NAME":"EARTH","NORAD_CAT_ID":"47980","MEAN_MOTION_DOT":"0.00002242","TLE_LINE2":"2 47980  53.0551 344.6814 0001168  88.9167 271.1956 15.06396022127054","EPOCH":"2023-06-30T16:07:31.129248"},{"MEAN_ELEMENT_THEORY":"SGP4","REF_FRAME":"TEME","APOAPSIS":"547.897","ELEMENT_SET_NO":"999","GP_ID":"234617370","DECAY_DATE":null,"SEMIMAJOR_AXIS":"6925.382","OBJECT_NAME":"STARLINK-2303","LAUNCH_DATE":"2021-03-24","COUNTRY_CODE":"US","BSTAR":"0.00122950000000","OBJECT_ID":"2021-024E","RCS_SIZE":"LARGE","REV_AT_EPOCH":"12563","CLASSIFICATION_TYPE":"U","RA_OF_ASC_NODE":"76.5666","OBJECT_TYPE":"PAYLOAD","INCLINATION":"53.0536","MEAN_MOTION":"15.06389199","MEAN_MOTION_DDOT":"0.0000000000000","PERIOD":"95.593","ARG_OF_PERICENTER":"89.3902","TLE_LINE1":"1 47981U 21024E   23180.11042070  .00018074  00000-0  12295-2 0  9998","CENTER_NAME":"EARTH","TIME_SYSTEM":"UTC","EPHEMERIS_TYPE":"0","ECCENTRICITY":"0.00009390","MEAN_MOTION_DOT":"0.00018074","NORAD_CAT_ID":"47981","EPOCH":"2023-06-29T02:39:00.348480","TLE_LINE2":"2 47981  53.0536  76.5666 0000939  89.3902 270.7195 15.06389199125630","FILE":"3945446","SITE":"AFETR","PERIAPSIS":"546.596","MEAN_ANOMALY":"270.7195"},{"PERIAPSIS":"546.417","MEAN_ANOMALY":"272.9086","FILE":"3945968","SITE":"AFETR","MEAN_MOTION_DOT":"0.00019562","NORAD_CAT_ID":"47982","EPOCH":"2023-06-29T18:06:31.631328","TLE_LINE2":"2 47982  53.0546   3.6742 0001070  87.2025 272.9086 15.06418129126706","ARG_OF_PERICENTER":"87.2025","TLE_LINE1":"1 47982U 21024F   23180.75453277  .00019562  00000-0  13279-2 0  9990","CENTER_NAME":"EARTH","TIME_SYSTEM":"UTC","EPHEMERIS_TYPE":"0","ECCENTRICITY":"0.00010700","PERIOD":"95.591","OBJECT_TYPE":"PAYLOAD","MEAN_MOTION":"15.06418129","INCLINATION":"53.0546","MEAN_MOTION_DDOT":"0.0000000000000","RA_OF_ASC_NODE":"3.6742","CLASSIFICATION_TYPE":"U","REV_AT_EPOCH":"12670","RCS_SIZE":"LARGE","COUNTRY_CODE":"US","BSTAR":"0.00132790000000","OBJECT_ID":"2021-024F","OBJECT_NAME":"STARLINK-2317","LAUNCH_DATE":"2021-03-24","GP_ID":"234630307","DECAY_DATE":null,"SEMIMAJOR_AXIS":"6925.293","REF_FRAME":"TEME","APOAPSIS":"547.899","ELEMENT_SET_NO":"999","MEAN_ELEMENT_THEORY":"SGP4"}];
